NORAD_CAT_ID,OBJECT_NAME,OBJECT_TYPE,EPOCH,MEAN_MOTION,ECCENTRICITY,INCLINATION,RA_OF_ASC_NODE,ARG_OF_PERICENTER,MEAN_ANOMALY,BSTAR,MEAN_MOTION_DOT,MEAN_MOTION_DDOT,TLE_LINE0,TLE_LINE1,TLE_LINE2,SEMIMAJOR_AXIS,PERIOD,APOGEE,PERIGEE,DECAYED
56455.0,STARLINK-5987,PAYLOAD,2023-08-05 17:52:46,14.98337473,0.0003045,70.0,12.0063,269.2099,90.8711,9.9427e-05,1.094e-05,0.0,0 STARLINK-5987,1 56455U 23064H   23217.74498068  .00001094  00000-0  99427-4 0  9990,2 56455  70.0000  12.0063 0003045 269.2099  90.8711 14.98337473 13767,6950.17,96.107,574.151,569.918,0.0
56455.0,STARLINK-5987,PAYLOAD,2023-08-06 09:54:08,14.9831954,0.0002712,70.0006,10.3233,265.2355,94.8495,-6.7441e-05,-8.97e-06,0.0,0 STARLINK-5987,1 56455U 23064H   23218.41259661 -.00000897  00000-0 -67441-4 0  9992,2 56455  70.0006  10.3233 0002712 265.2355  94.8495 14.98319540 13863,6950.225,96.108,573.975,570.205,0.0
56455.0,STARLINK-5987,PAYLOAD,2023-08-06 17:54:49,14.98313199,0.0002917,70.0004,9.4813,271.1864,88.8961,-0.00014396,-1.809e-05,0.0,0 STARLINK-5987,1 56455U 23064H   23218.74640542 -.00001809  00000-0 -14396-3 0  9994,2 56455  70.0004   9.4813 0002917 271.1864  88.8961 14.98313199 13913,6950.245,96.108,574.137,570.082,0.0
56455.0,STARLINK-5987,PAYLOAD,2023-08-07 09:56:09,14.98326299,0.0003288,69.9996,7.7969,271.147,88.9312,-0.00011879,-1.51e-05,0.0,0 STARLINK-5987,1 56455U 23064H   23219.41400005 -.00001510  00000-0 -11879-3 0  9999,2 56455  69.9996   7.7969 0003288 271.1470  88.9312 14.98326299 14016,6950.204,96.107,574.355,569.784,0.0
56455.0,STARLINK-5987,PAYLOAD,2023-08-07 19:32:57,14.98332077,0.0003296,69.9998,6.7873,275.3099,84.7684,-7.6172e-05,-1.002e-05,0.0,0 STARLINK-5987,1 56455U 23064H   23219.81455589 -.00001002  00000-0 -76172-4 0  9994,2 56455  69.9998   6.7873 0003296 275.3099  84.7684 14.98332077 14076,6950.186,96.107,574.342,569.761,0.0
56455.0,STARLINK-5987,PAYLOAD,2023-08-08 16:22:41,14.98335796,0.0003419,69.9999,4.5991,275.249,84.8279,0.00027406,3.179e-05,0.0,0 STARLINK-5987,1 56455U 23064H   23220.68242303  .00003179  00000-0  27406-3 0  9999,2 56455  69.9999   4.5991 0003419 275.2490  84.8279 14.98335796 14202,6950.175,96.107,574.416,569.664,0.0
56455.0,STARLINK-5987,PAYLOAD,2023-08-09 16:24:43,14.98328491,0.0003167,70.0007,2.0747,274.1066,85.9731,-1.7922e-05,-3.07e-06,0.0,0 STARLINK-5987,1 56455U 23064H   23221.68383452 -.00000307  00000-0 -17922-4 0  9996,2 56455  70.0007   2.0747 0003167 274.1066  85.9731 14.98328491 14359,6950.198,96.107,574.264,569.861,0.0
56455.0,STARLINK-5987,PAYLOAD,2023-08-10 14:50:35,14.98336049,0.0003258,70.0005,359.7183,269.057,91.0216,-0.00012596,-1.596e-05,0.0,0 STARLINK-5987,1 56455U 23064H   23222.61846968 -.00001596  00000-0 -12596-3 0  9998,2 56455  70.0005 359.7183 0003258 269.0570  91.0216 14.98336049 14496,6950.174,96.107,574.304,569.775,0.0
56455.0,STARLINK-5987,PAYLOAD,2023-08-11 18:04:52,14.98330758,0.0003284,70.0004,356.856,271.5544,88.5238,3.2128e-05,2.9e-06,0.0,0 STARLINK-5987,1 56455U 23064H   23223.75338603  .00000290  00000-0  32128-4 0  9998,2 56455  70.0004 356.8560 0003284 271.5544  88.5238 14.98330758 14665,6950.191,96.107,574.338,569.773,0.0
56455.0,STARLINK-5987,PAYLOAD,2023-08-13 02:07:34,14.9831809,0.0003363,70.0006,353.4903,266.7311,93.3463,0.00017149,1.953e-05,0.0,0 STARLINK-5987,1 56455U 23064H   23225.08859012  .00001953  00000-0  17149-3 0  9990,2 56455  70.0006 353.4903 0003363 266.7311  93.3463 14.98318090 14868,6950.23,96.108,574.432,569.757,0.0
56455.0,STARLINK-5987,PAYLOAD,2023-08-13 18:08:54,14.98330674,0.0003316,70.0006,351.8066,268.6455,91.4324,-1.5303e-05,-2.76e-06,0.0,0 STARLINK-5987,1 56455U 23064H   23225.75618630 -.00000276  00000-0 -15303-4 0  9993,2 56455  70.0006 351.8066 0003316 268.6455  91.4324 14.98330674 14966,6950.191,96.107,574.36,569.751,0.0
56455.0,STARLINK-5987,PAYLOAD,2023-08-15 02:11:35,14.98336321,0.0003113,70.0008,348.4395,272.1651,87.9151,-0.00012058,-1.532e-05,0.0,0 STARLINK-5987,1 56455U 23064H   23227.09138736 -.00001532  00000-0 -12058-3 0  9995,2 56455  70.0008 348.4395 0003113 272.1651  87.9151 14.98336321 15164,6950.173,96.107,574.202,569.875,0.0
56455.0,STARLINK-5987,PAYLOAD,2023-08-15 18:12:56,14.98312738,0.0003052,70.0008,346.7561,270.9871,89.0938,0.00040566,4.748e-05,0.0,0 STARLINK-5987,1 56455U 23064H   23227.75898753  .00004748  00000-0  40566-3 0  9995,2 56455  70.0008 346.7561 0003052 270.9871  89.0938 14.98312738 15265,6950.246,96.108,574.232,569.99,0.0
56455.0,STARLINK-5987,PAYLOAD,2023-08-16 11:50:25,14.98335195,0.0002926,70.0016,344.906,275.9,84.1826,-0.00015931,-1.994e-05,0.0,0 STARLINK-5987,1 56455U 23064H   23228.49334722 -.00001994  00000-0 -15931-3 0  9998,2 56455  70.0016 344.9060 0002926 275.9000  84.1826 14.98335195 15372,6950.177,96.107,574.075,570.008,0.0
56455.0,STARLINK-5987,PAYLOAD,2023-08-18 00:41:30,14.98330818,0.0003288,70.0016,341.0354,271.4611,88.6172,4.559e-06,-3.9e-07,0.0,0 STARLINK-5987,1 56455U 23064H   23230.02882318 -.00000039  00000-0  45590-5 0  9993,2 56455  70.0016 341.0354 0003288 271.4611  88.6172 14.98330818 15603,6950.19,96.107,574.341,569.77,0.0
56455.0,STARLINK-5987,PAYLOAD,2023-08-18 10:18:19,14.98324295,0.0003283,70.0012,340.0251,270.259,89.8193,-4.021e-05,-5.73e-06,0.0,0 STARLINK-5987,1 56455U 23064H   23230.42938889 -.00000573  00000-0 -40210-4 0  9999,2 56455  70.0012 340.0251 0003283 270.2590  89.8193 14.98324295 15666,6950.211,96.107,574.357,569.794,0.0
56455.0,STARLINK-5987,PAYLOAD,2023-08-19 00:43:31,14.98331414,0.000344,70.0003,338.509,270.5126,89.5639,-3.9813e-06,-1.41e-06,0.0,0 STARLINK-5987,1 56455U 23064H   23231.03022343 -.00000141  00000-0 -39813-5 0  9995,2 56455  70.0003 338.5090 0003440 270.5126  89.5639 14.98331414 15755,6950.189,96.107,574.444,569.663,0.0
56455.0,STARLINK-5987,PAYLOAD,2023-08-20 11:58:28,14.98325956,0.0003479,70.0003,334.8051,270.4259,89.6502,8.4247e-05,9.12e-06,0.0,0 STARLINK-5987,1 56455U 23064H   23232.49894527  .00000912  00000-0  84247-4 0  9991,2 56455  70.0003 334.8051 0003479 270.4259  89.6502 14.98325956 15977,6950.205,96.107,574.488,569.652,0.0
56455.0,STARLINK-5987,PAYLOAD,2023-08-20 16:46:52,14.98333663,0.000328,70.0005,334.3001,268.7588,91.3196,7.2386e-05,7.71e-06,0.0,0 STARLINK-5987,1 56455U 23064H   23232.69922076  .00000771  00000-0  72386-4 0  9998,2 56455  70.0005 334.3001 0003280 268.7588  91.3196 14.98333663 16002,6950.182,96.107,574.326,569.767,0.0
56455.0,STARLINK-5987,PAYLOAD,2023-08-21 16:48:53,14.98332723,0.0003151,70.0007,331.7768,265.6419,94.438,2.5804e-05,2.15e-06,0.0,0 STARLINK-5987,1 56455U 23064H   23233.70062124  .00000215  00000-0  25804-4 0  9996,2 56455  70.0007 331.7768 0003151 265.6419  94.4380 14.98332723 16152,6950.184,96.107,574.239,569.859,0.0
56455.0,STARLINK-5987,PAYLOAD,2023-08-23 12:04:31,14.98330728,0.0003294,70.0007,327.2312,273.2627,86.8155,8.1716e-06,4e-08,0.0,0 STARLINK-5987,1 56455U 23064H   23235.50314065  .00000004  00000-0  81716-5 0  9991,2 56455  70.0007 327.2312 0003294 273.2627  86.8155 14.98330728 16429,6950.191,96.107,574.345,569.766,0.0
56455.0,STARLINK-5987,PAYLOAD,2023-08-24 12:06:32,14.98327204,0.0003256,70.0006,324.7065,270.3881,89.6905,-3.9424e-05,-5.63e-06,0.0,0 STARLINK-5987,1 56455U 23064H   23236.50454394 -.00000563  00000-0 -39424-4 0  9992,2 56455  70.0006 324.7065 0003256 270.3881  89.6905 14.98327204 16578,6950.202,96.107,574.33,569.804,0.0
56455.0,STARLINK-5987,PAYLOAD,2023-08-24 23:19:27,14.98338051,0.0003327,70.0001,323.529,264.5605,95.5174,7.7866e-05,8.36e-06,0.0,0 STARLINK-5987,1 56455U 23064H   23236.97185153  .00000836  00000-0  77866-4 0  9990,2 56455  70.0001 323.5290 0003327 264.5605  95.5174 14.98338051 16642,6950.168,96.106,574.345,569.721,0.0
56455.0,STARLINK-5987,PAYLOAD,2023-08-25 10:32:25,14.98331048,0.0004135,69.9984,322.3487,281.2022,78.8672,-4.1533e-05,-5.89e-06,0.0,0 STARLINK-5987,1 56455U 23064H   23237.43917928 -.00000589  00000-0 -41533-4 0  9994,2 56455  69.9984 322.3487 0004135 281.2022  78.8672 14.98331048 16715,6950.19,96.107,574.929,569.181,0.0
56455.0,STARLINK-5987,PAYLOAD,2023-08-25 13:44:41,14.98330403,0.0003212,70.0003,322.0145,264.9974,95.0819,2.7675e-07,-9e-07,0.0,0 STARLINK-5987,1 56455U 23064H   23237.57269769 -.00000090  00000-0  27675-6 0  9991,2 56455  70.0003 322.0145 0003212 264.9974  95.0819 14.98330403 16377,6950.192,96.107,574.289,569.824,0.0
56455.0,STARLINK-5987,PAYLOAD,2023-08-25 15:20:49,14.98331167,0.0003389,69.9999,321.846,267.1382,92.9389,2.4014e-05,1.93e-06,0.0,0 STARLINK-5987,1 56455U 23064H   23237.63945656  .00000193  00000-0  24014-4 0  9999,2 56455  69.9999 321.8460 0003389 267.1382  92.9389 14.98331167 16385,6950.189,96.107,574.41,569.699,0.0
56455.0,STARLINK-5987,PAYLOAD,2023-08-26 10:34:26,14.98324581,0.0003181,70.0004,319.8265,262.0501,98.0297,-6.3709e-06,-1.69e-06,0.0,0 STARLINK-5987,1 56455U 23064H   23238.44058148 -.00000169  00000-0 -63709-5 0  9990,2 56455  70.0004 319.8265 0003181 262.0501  98.0297 14.98324581 16862,6950.21,96.107,574.286,569.864,0.0
56455.0,STARLINK-5987,PAYLOAD,2023-08-26 12:10:34,14.98324524,0.0003198,70.0003,319.6579,263.0319,97.0476,-9.0041e-06,-2e-06,0.0,0 STARLINK-5987,1 56455U 23064H   23238.50734182 -.00000200  00000-0 -90041-5 0  9991,2 56455  70.0003 319.6579 0003198 263.0319  97.0476 14.98324524 16510,6950.21,96.107,574.298,569.852,0.0
56455.0,STARLINK-5987,PAYLOAD,2023-08-26 15:22:50,14.98325023,0.0003175,70.0003,319.3215,260.1021,99.9779,-1.0229e-05,-2.15e-06,0.0,0 STARLINK-5987,1 56455U 23064H   23238.64086174 -.00000215  00000-0 -10229-4 0  9992,2 56455  70.0003 319.3215 0003175 260.1021  99.9779 14.98325023 16531,6950.208,96.107,574.28,569.867,0.0
56455.0,STARLINK-5987,PAYLOAD,2023-08-27 09:00:18,14.98329542,0.0003173,70.0001,317.4695,262.8925,97.1873,3.2893e-05,2.99e-06,0.0,0 STARLINK-5987,1 56455U 23064H   23239.37521740  .00000299  00000-0  32893-4 0  9997,2 56455  70.0001 317.4695 0003173 262.8925  97.1873 14.98329542 17008,6950.194,96.107,574.265,569.854,0.0
